STARLINK-36178          
1 67025U 25293Y   26008.11328939  .00676899  00000+0  10348-1 0  9994
2 67025  69.9990 249.2060 0007140  87.5533 272.6471 15.51824818  5760
STARLINK-36176          
1 67026U 25293Z   26008.16668980  .00061254  00000+0  99242-3 0  9998
2 67026  69.9997 249.0541 0003370 274.6550  27.7479 15.52471183  4455
STARLINK-36171          
1 67027U 25293AA  26008.04850131  .00073703  00000+0  11877-2 0  9996
2 67027  69.9998 249.3809 0003513 264.0083  96.0704 15.52563510  5750
STARLINK-36132          
1 67028U 25293AB  26008.04788166 -.01283279  00000+0 -25536-1 0  9995
2 67028  69.9990 249.3782 0013375  31.5176 328.6808 15.49449515  5753
STARLINK-36190          
1 67029U 25293AC  26008.16668980  .00059992  00000+0  97211-3 0  9991
2 67029  69.9997 249.0517 0003376 274.7311  29.5882 15.52473199  4450
STARLINK-36138          
1 67030U 25294A   26008.00003471  .00062332  00000+0  14889-2 0  9996
2 67030  43.0006  25.2572 0001091 263.1382 192.3859 15.40667515  4304
STARLINK-36150          
1 67031U 25294B   26008.05663465  .00022283  00000+0  53866-3 0  9997
2 67031  43.0016  25.0506 0001230 235.6964 124.3776 15.40726428  5477
STARLINK-36131          
1 67032U 25294C   26008.06335634  .00040352  00000+0  96729-3 0  9995
2 67032  43.0011  25.1052 0000620 248.0078 112.0713 15.40727141  5474
STARLINK-36137          
1 67033U 25294D   26008.06111703  .00040150  00000+0  96219-3 0  9995
2 67033  42.9981  25.0851 0001317 129.2592 230.8382 15.40736290  5476
STARLINK-36140          
1 67034U 25294E   26007.53577223  .00037633  00000+0  90306-3 0  9993
2 67034  43.0001  28.0234 0000974 293.9752  66.1003 15.40721814  5392
STARLINK-36085          
1 67035U 25294F   26008.16668980  .00005929  00000+0  14915-3 0  9990
2 67035  43.0006  23.9643 0000965 288.4092 149.4146 15.40686265  4338
STARLINK-36125          
1 67036U 25294G   26008.08035925  .00153444  00000+0  25731-2 0  9992
2 67036  42.9995  24.3597 0001389 254.4277 105.6430 15.50549324  5488
