CCSDS_OMM_VERS = 2.0
CREATION_DATE  = 
ORIGINATOR     = 

OBJECT_NAME    = STARLINK-36178
OBJECT_ID      = 2025-293Y
CENTER_NAME    = EARTH
REF_FRAME      = TEME
TIME_SYSTEM    = UTC
MEAN_ELEMENT_THEORY = SGP/SGP4

EPOCH          = 2026-01-08T02:43:08.203296
MEAN_MOTION    = 15.51824818
ECCENTRICITY   = .000714
INCLINATION    = 69.9990
RA_OF_ASC_NODE = 249.2060
ARG_OF_PERICENTER = 87.5533
MEAN_ANOMALY   = 272.6471

EPHEMERIS_TYPE = 0
CLASSIFICATION_TYPE = U
NORAD_CAT_ID   = 67025
ELEMENT_SET_NO = 999
REV_AT_EPOCH   = 576
BSTAR          = .10348E-1
MEAN_MOTION_DOT = .676899E-2
MEAN_MOTION_DDOT = 0

CCSDS_OMM_VERS = 2.0
CREATION_DATE  = 
ORIGINATOR     = 

OBJECT_NAME    = STARLINK-36176
OBJECT_ID      = 2025-293Z
CENTER_NAME    = EARTH
REF_FRAME      = TEME
TIME_SYSTEM    = UTC
MEAN_ELEMENT_THEORY = SGP/SGP4

EPOCH          = 2026-01-08T04:00:01.998720
MEAN_MOTION    = 15.52471183
ECCENTRICITY   = .000337
INCLINATION    = 69.9997
RA_OF_ASC_NODE = 249.0541
ARG_OF_PERICENTER = 274.6550
MEAN_ANOMALY   = 27.7479

EPHEMERIS_TYPE = 0
CLASSIFICATION_TYPE = U
NORAD_CAT_ID   = 67026
ELEMENT_SET_NO = 999
REV_AT_EPOCH   = 445
BSTAR          = .99242E-3
MEAN_MOTION_DOT = .61254E-3
MEAN_MOTION_DDOT = 0

CCSDS_OMM_VERS = 2.0
CREATION_DATE  = 
ORIGINATOR     = 

OBJECT_NAME    = STARLINK-36171
OBJECT_ID      = 2025-293AA
CENTER_NAME    = EARTH
REF_FRAME      = TEME
TIME_SYSTEM    = UTC
MEAN_ELEMENT_THEORY = SGP/SGP4

EPOCH          = 2026-01-08T01:09:50.513184
MEAN_MOTION    = 15.52563510
ECCENTRICITY   = .0003513
INCLINATION    = 69.9998
RA_OF_ASC_NODE = 249.3809
ARG_OF_PERICENTER = 264.0083
MEAN_ANOMALY   = 96.0704

EPHEMERIS_TYPE = 0
CLASSIFICATION_TYPE = U
NORAD_CAT_ID   = 67027
ELEMENT_SET_NO = 999
REV_AT_EPOCH   = 575
BSTAR          = .11877E-2
MEAN_MOTION_DOT = .73703E-3
MEAN_MOTION_DDOT = 0

CCSDS_OMM_VERS = 2.0
CREATION_DATE  = 
ORIGINATOR     = 

OBJECT_NAME    = STARLINK-36132
OBJECT_ID      = 2025-293AB
CENTER_NAME    = EARTH
REF_FRAME      = TEME
TIME_SYSTEM    = UTC
MEAN_ELEMENT_THEORY = SGP/SGP4

EPOCH          = 2026-01-08T01:08:56.975424
MEAN_MOTION    = 15.49449515
ECCENTRICITY   = .0013375
INCLINATION    = 69.9990
RA_OF_ASC_NODE = 249.3782
ARG_OF_PERICENTER = 31.5176
MEAN_ANOMALY   = 328.6808

EPHEMERIS_TYPE = 0
CLASSIFICATION_TYPE = U
NORAD_CAT_ID   = 67028
ELEMENT_SET_NO = 999
REV_AT_EPOCH   = 575
BSTAR          = -.25536E-1
MEAN_MOTION_DOT = -.1283279E-1
MEAN_MOTION_DDOT = 0

CCSDS_OMM_VERS = 2.0
CREATION_DATE  = 
ORIGINATOR     = 

OBJECT_NAME    = STARLINK-36190
OBJECT_ID      = 2025-293AC
CENTER_NAME    = EARTH
REF_FRAME      = TEME
TIME_SYSTEM    = UTC
MEAN_ELEMENT_THEORY = SGP/SGP4

EPOCH          = 2026-01-08T04:00:01.998720
MEAN_MOTION    = 15.52473199
ECCENTRICITY   = .0003376
INCLINATION    = 69.9997
RA_OF_ASC_NODE = 249.0517
ARG_OF_PERICENTER = 274.7311
MEAN_ANOMALY   = 29.5882

EPHEMERIS_TYPE = 0
CLASSIFICATION_TYPE = U
NORAD_CAT_ID   = 67029
ELEMENT_SET_NO = 999
REV_AT_EPOCH   = 445
BSTAR          = .97211E-3
MEAN_MOTION_DOT = .59992E-3
MEAN_MOTION_DDOT = 0

CCSDS_OMM_VERS = 2.0
CREATION_DATE  = 
ORIGINATOR     = 

OBJECT_NAME    = STARLINK-36138
OBJECT_ID      = 2025-294A
CENTER_NAME    = EARTH
REF_FRAME      = TEME
TIME_SYSTEM    = UTC
MEAN_ELEMENT_THEORY = SGP/SGP4

EPOCH          = 2026-01-08T00:00:02.998944
MEAN_MOTION    = 15.40667515
ECCENTRICITY   = .0001091
INCLINATION    = 43.0006
RA_OF_ASC_NODE = 25.2572
ARG_OF_PERICENTER = 263.1382
MEAN_ANOMALY   = 192.3859

EPHEMERIS_TYPE = 0
CLASSIFICATION_TYPE = U
NORAD_CAT_ID   = 67030
ELEMENT_SET_NO = 999
REV_AT_EPOCH   = 430
BSTAR          = .14889E-2
MEAN_MOTION_DOT = .62332E-3
MEAN_MOTION_DDOT = 0

CCSDS_OMM_VERS = 2.0
CREATION_DATE  = 
ORIGINATOR     = 

OBJECT_NAME    = STARLINK-36150
OBJECT_ID      = 2025-294B
CENTER_NAME    = EARTH
REF_FRAME      = TEME
TIME_SYSTEM    = UTC
MEAN_ELEMENT_THEORY = SGP/SGP4

EPOCH          = 2026-01-08T01:21:33.233760
MEAN_MOTION    = 15.40726428
ECCENTRICITY   = .000123
INCLINATION    = 43.0016
RA_OF_ASC_NODE = 25.0506
ARG_OF_PERICENTER = 235.6964
MEAN_ANOMALY   = 124.3776

EPHEMERIS_TYPE = 0
CLASSIFICATION_TYPE = U
NORAD_CAT_ID   = 67031
ELEMENT_SET_NO = 999
REV_AT_EPOCH   = 547
BSTAR          = .53866E-3
MEAN_MOTION_DOT = .22283E-3
MEAN_MOTION_DDOT = 0

CCSDS_OMM_VERS = 2.0
CREATION_DATE  = 
ORIGINATOR     = 

OBJECT_NAME    = STARLINK-36131
OBJECT_ID      = 2025-294C
CENTER_NAME    = EARTH
REF_FRAME      = TEME
TIME_SYSTEM    = UTC
MEAN_ELEMENT_THEORY = SGP/SGP4

EPOCH          = 2026-01-08T01:31:13.987776
MEAN_MOTION    = 15.40727141
ECCENTRICITY   = .000062
INCLINATION    = 43.0011
RA_OF_ASC_NODE = 25.1052
ARG_OF_PERICENTER = 248.0078
MEAN_ANOMALY   = 112.0713

EPHEMERIS_TYPE = 0
CLASSIFICATION_TYPE = U
NORAD_CAT_ID   = 67032
ELEMENT_SET_NO = 999
REV_AT_EPOCH   = 547
BSTAR          = .96729E-3
MEAN_MOTION_DOT = .40352E-3
MEAN_MOTION_DDOT = 0

CCSDS_OMM_VERS = 2.0
CREATION_DATE  = 
ORIGINATOR     = 

OBJECT_NAME    = STARLINK-36137
OBJECT_ID      = 2025-294D
CENTER_NAME    = EARTH
REF_FRAME      = TEME
TIME_SYSTEM    = UTC
MEAN_ELEMENT_THEORY = SGP/SGP4

EPOCH          = 2026-01-08T01:28:00.511392
MEAN_MOTION    = 15.40736290
ECCENTRICITY   = .0001317
INCLINATION    = 42.9981
RA_OF_ASC_NODE = 25.0851
ARG_OF_PERICENTER = 129.2592
MEAN_ANOMALY   = 230.8382

EPHEMERIS_TYPE = 0
CLASSIFICATION_TYPE = U
NORAD_CAT_ID   = 67033
ELEMENT_SET_NO = 999
REV_AT_EPOCH   = 547
BSTAR          = .96219E-3
MEAN_MOTION_DOT = .4015E-3
MEAN_MOTION_DDOT = 0

CCSDS_OMM_VERS = 2.0
CREATION_DATE  = 
ORIGINATOR     = 

OBJECT_NAME    = STARLINK-36140
OBJECT_ID      = 2025-294E
CENTER_NAME    = EARTH
REF_FRAME      = TEME
TIME_SYSTEM    = UTC
MEAN_ELEMENT_THEORY = SGP/SGP4

EPOCH          = 2026-01-07T12:51:30.720672
MEAN_MOTION    = 15.40721814
ECCENTRICITY   = .00009745
INCLINATION    = 43.0001
RA_OF_ASC_NODE = 28.0234
ARG_OF_PERICENTER = 293.9752
MEAN_ANOMALY   = 66.1003

EPHEMERIS_TYPE = 0
CLASSIFICATION_TYPE = U
NORAD_CAT_ID   = 67034
ELEMENT_SET_NO = 999
REV_AT_EPOCH   = 539
BSTAR          = .90305897E-3
MEAN_MOTION_DOT = .37633E-3
MEAN_MOTION_DDOT = 0

CCSDS_OMM_VERS = 2.0
CREATION_DATE  = 
ORIGINATOR     = 

OBJECT_NAME    = STARLINK-36085
OBJECT_ID      = 2025-294F
CENTER_NAME    = EARTH
REF_FRAME      = TEME
TIME_SYSTEM    = UTC
MEAN_ELEMENT_THEORY = SGP/SGP4

EPOCH          = 2026-01-08T04:00:01.998720
MEAN_MOTION    = 15.40686265
ECCENTRICITY   = .0000965
INCLINATION    = 43.0006
RA_OF_ASC_NODE = 23.9643
ARG_OF_PERICENTER = 288.4092
MEAN_ANOMALY   = 149.4146

EPHEMERIS_TYPE = 0
CLASSIFICATION_TYPE = U
NORAD_CAT_ID   = 67035
ELEMENT_SET_NO = 999
REV_AT_EPOCH   = 433
BSTAR          = .14915E-3
MEAN_MOTION_DOT = .5929E-4
MEAN_MOTION_DDOT = 0

CCSDS_OMM_VERS = 2.0
CREATION_DATE  = 
ORIGINATOR     = 

OBJECT_NAME    = STARLINK-36125
OBJECT_ID      = 2025-294G
CENTER_NAME    = EARTH
REF_FRAME      = TEME
TIME_SYSTEM    = UTC
MEAN_ELEMENT_THEORY = SGP/SGP4

EPOCH          = 2026-01-08T01:55:43.039200
MEAN_MOTION    = 15.50549324
ECCENTRICITY   = .0001389
INCLINATION    = 42.9995
RA_OF_ASC_NODE = 24.3597
ARG_OF_PERICENTER = 254.4277
MEAN_ANOMALY   = 105.6430

EPHEMERIS_TYPE = 0
CLASSIFICATION_TYPE = U
NORAD_CAT_ID   = 67036
ELEMENT_SET_NO = 999
REV_AT_EPOCH   = 548
BSTAR          = .25731E-2
MEAN_MOTION_DOT = .153444E-2
MEAN_MOTION_DDOT = 0

